start=new Date('2022-10-28T00:00:00.000Z').valueOf();
sats=[{"MEAN_MOTION_DDOT":"0.0000000000000","OBJECT_ID":"2022-029D","TLE_LINE2":"2 52091  53.2188 208.7854 0002163  49.5963 310.5217 15.08834629 35034","FILE":"3635758","BSTAR":"0.00036220000000","MEAN_MOTION_DOT":"0.00005480","ECCENTRICITY":"0.00021630","REF_FRAME":"TEME","EPHEMERIS_TYPE":"0","PERIOD":"95.438","ARG_OF_PERICENTER":"49.5963","ELEMENT_SET_NO":"999","REV_AT_EPOCH":"3503","CLASSIFICATION_TYPE":"U","TIME_SYSTEM":"UTC","GP_ID":"216305246","DECAY_DATE":null,"LAUNCH_DATE":"2022-03-19","MEAN_ANOMALY":"310.5217","EPOCH":"2022-10-27T03:21:18.357120","CENTER_NAME":"EARTH","MEAN_MOTION":"15.08834629","NORAD_CAT_ID":"52091","SITE":"AFETR","OBJECT_TYPE":"PAYLOAD","OBJECT_NAME":"STARLINK-3713","PERIAPSIS":"538.265","MEAN_ELEMENT_THEORY":"SGP4","RA_OF_ASC_NODE":"208.7854","RCS_SIZE":"LARGE","TLE_LINE1":"1 52091U 22029D   22300.13979580  .00005480  00000-0  36220-3 0  9994","SEMIMAJOR_AXIS":"6917.897","APOAPSIS":"541.258","INCLINATION":"53.2188","COUNTRY_CODE":"US"},{"EPOCH":"2022-10-27T11:12:54.434016","MEAN_ANOMALY":"317.5605","CENTER_NAME":"EARTH","MEAN_MOTION":"15.08849764","TIME_SYSTEM":"UTC","GP_ID":"216305998","LAUNCH_DATE":"2022-03-19","DECAY_DATE":null,"PERIOD":"95.437","EPHEMERIS_TYPE":"0","REF_FRAME":"TEME","ECCENTRICITY":"0.00018210","ARG_OF_PERICENTER":"42.5528","ELEMENT_SET_NO":"999","CLASSIFICATION_TYPE":"U","REV_AT_EPOCH":"3508","MEAN_MOTION_DDOT":"0.0000000000000","TLE_LINE2":"2 52092  53.2174 207.3144 0001821  42.5528 317.5605 15.08849764 35086","OBJECT_ID":"2022-029E","FILE":"3635758","MEAN_MOTION_DOT":"0.00002187","BSTAR":"0.00015545000000","APOAPSIS":"540.975","COUNTRY_CODE":"US","INCLINATION":"53.2174","RCS_SIZE":"LARGE","TLE_LINE1":"1 52092U 22029E   22300.46729669  .00002187  00000-0  15545-3 0  9990","SEMIMAJOR_AXIS":"6917.851","OBJECT_TYPE":"PAYLOAD","SITE":"AFETR","NORAD_CAT_ID":"52092","OBJECT_NAME":"STARLINK-3716","RA_OF_ASC_NODE":"207.3144","MEAN_ELEMENT_THEORY":"SGP4","PERIAPSIS":"538.456"},{"MEAN_MOTION":"15.08833674","EPOCH":"2022-10-27T10:57:01.594944","MEAN_ANOMALY":"306.0455","CENTER_NAME":"EARTH","TIME_SYSTEM":"UTC","GP_ID":"216306740","DECAY_DATE":null,"LAUNCH_DATE":"2022-03-19","ARG_OF_PERICENTER":"54.0691","CLASSIFICATION_TYPE":"U","ELEMENT_SET_NO":"999","REV_AT_EPOCH":"3508","PERIOD":"95.438","EPHEMERIS_TYPE":"0","REF_FRAME":"TEME","ECCENTRICITY":"0.00016540","FILE":"3635758","MEAN_MOTION_DOT":"0.00003282","BSTAR":"0.00022422000000","MEAN_MOTION_DDOT":"0.0000000000000","TLE_LINE2":"2 52093  53.2162 207.3735 0001654  54.0691 306.0455 15.08833674 35082","OBJECT_ID":"2022-029F","COUNTRY_CODE":"US","INCLINATION":"53.2162","APOAPSIS":"540.909","SEMIMAJOR_AXIS":"6917.900","TLE_LINE1":"1 52093U 22029F   22300.45626846  .00003282  00000-0  22422-3 0  9992","RCS_SIZE":"LARGE","OBJECT_NAME":"STARLINK-3673","RA_OF_ASC_NODE":"207.3735","PERIAPSIS":"538.621","MEAN_ELEMENT_THEORY":"SGP4","OBJECT_TYPE":"PAYLOAD","SITE":"AFETR","NORAD_CAT_ID":"52093"},{"TLE_LINE1":"1 52094U 22029G   22300.12874765  .00003464  00000-0  23565-3 0  9993","RCS_SIZE":"LARGE","SEMIMAJOR_AXIS":"6917.901","APOAPSIS":"540.914","INCLINATION":"53.2182","COUNTRY_CODE":"US","OBJECT_TYPE":"PAYLOAD","SITE":"AFETR","NORAD_CAT_ID":"52094","OBJECT_NAME":"STARLINK-3714","MEAN_ELEMENT_THEORY":"SGP4","PERIAPSIS":"538.618","RA_OF_ASC_NODE":"208.8390","GP_ID":"216305497","TIME_SYSTEM":"UTC","DECAY_DATE":null,"LAUNCH_DATE":"2022-03-19","MEAN_ANOMALY":"306.6460","EPOCH":"2022-10-27T03:05:23.796960","CENTER_NAME":"EARTH","MEAN_MOTION":"15.08833233","MEAN_MOTION_DDOT":"0.0000000000000","TLE_LINE2":"2 52094  53.2182 208.8390 0001659  53.4684 306.6460 15.08833233 35036","OBJECT_ID":"2022-029G","FILE":"3635758","BSTAR":"0.00023565000000","MEAN_MOTION_DOT":"0.00003464","REF_FRAME":"TEME","ECCENTRICITY":"0.00016590","EPHEMERIS_TYPE":"0","PERIOD":"95.438","ARG_OF_PERICENTER":"53.4684","CLASSIFICATION_TYPE":"U","ELEMENT_SET_NO":"999","REV_AT_EPOCH":"3503"},{"SEMIMAJOR_AXIS":"6917.908","RCS_SIZE":"LARGE","TLE_LINE1":"1 52095U 22029H   22300.18395676  .00005160  00000-0  34213-3 0  9996","INCLINATION":"53.2157","COUNTRY_CODE":"US","APOAPSIS":"541.086","PERIAPSIS":"538.459","MEAN_ELEMENT_THEORY":"SGP4","RA_OF_ASC_NODE":"208.5949","OBJECT_NAME":"STARLINK-3701","SITE":"AFETR","NORAD_CAT_ID":"52095","OBJECT_TYPE":"PAYLOAD","DECAY_DATE":null,"LAUNCH_DATE":"2022-03-19","GP_ID":"216305747","TIME_SYSTEM":"UTC","MEAN_MOTION":"15.08831075","CENTER_NAME":"EARTH","MEAN_ANOMALY":"306.2343","EPOCH":"2022-10-27T04:24:53.864064","BSTAR":"0.00034213000000","MEAN_MOTION_DOT":"0.00005160","FILE":"3635758","TLE_LINE2":"2 52095  53.2157 208.5949 0001899  53.8825 306.2343 15.08831075 35042","OBJECT_ID":"2022-029H","MEAN_MOTION_DDOT":"0.0000000000000","CLASSIFICATION_TYPE":"U","ELEMENT_SET_NO":"999","REV_AT_EPOCH":"3504","ARG_OF_PERICENTER":"53.8825","ECCENTRICITY":"0.00018990","REF_FRAME":"TEME","PERIOD":"95.438","EPHEMERIS_TYPE":"0"},{"OBJECT_ID":"2022-029J","TLE_LINE2":"2 52096  53.2159 195.7039 0001884  44.1828 315.9314 15.08851856 35260","MEAN_MOTION_DDOT":"0.0000000000000","MEAN_MOTION_DOT":"0.00003236","BSTAR":"0.00022125000000","FILE":"3636022","EPHEMERIS_TYPE":"0","PERIOD":"95.437","REF_FRAME":"TEME","ECCENTRICITY":"0.00018840","REV_AT_EPOCH":"3526","ELEMENT_SET_NO":"999","CLASSIFICATION_TYPE":"U","ARG_OF_PERICENTER":"44.1828","DECAY_DATE":null,"LAUNCH_DATE":"2022-03-19","GP_ID":"216337735","TIME_SYSTEM":"UTC","CENTER_NAME":"EARTH","EPOCH":"2022-10-27T19:48:15.990912","MEAN_ANOMALY":"315.9314","MEAN_MOTION":"15.08851856","SITE":"AFETR","NORAD_CAT_ID":"52096","OBJECT_TYPE":"PAYLOAD","RA_OF_ASC_NODE":"195.7039","PERIAPSIS":"538.406","MEAN_ELEMENT_THEORY":"SGP4","OBJECT_NAME":"STARLINK-3717","RCS_SIZE":"LARGE","TLE_LINE1":"1 52096U 22029J   22300.82518508  .00003236  00000-0  22125-3 0  9990","SEMIMAJOR_AXIS":"6917.844","APOAPSIS":"541.012","COUNTRY_CODE":"US","INCLINATION":"53.2159"},{"DECAY_DATE":null,"LAUNCH_DATE":"2022-03-19","GP_ID":"216306240","TIME_SYSTEM":"UTC","CENTER_NAME":"EARTH","MEAN_ANOMALY":"301.4952","EPOCH":"2022-10-27T06:05:35.192256","MEAN_MOTION":"15.08844570","OBJECT_ID":"2022-029L","TLE_LINE2":"2 52098  53.2160 208.2824 0001575  58.6194 301.4952 15.08844570 35059","MEAN_MOTION_DDOT":"0.0000000000000","MEAN_MOTION_DOT":"0.00007618","BSTAR":"0.00049612000000","FILE":"3635758","PERIOD":"95.437","EPHEMERIS_TYPE":"0","ECCENTRICITY":"0.00015750","REF_FRAME":"TEME","ELEMENT_SET_NO":"999","CLASSIFICATION_TYPE":"U","REV_AT_EPOCH":"3505","ARG_OF_PERICENTER":"58.6194","RCS_SIZE":"LARGE","TLE_LINE1":"1 52098U 22029L   22300.25387954  .00007618  00000-0  49612-3 0  9996","SEMIMAJOR_AXIS":"6917.866","APOAPSIS":"540.821","COUNTRY_CODE":"US","INCLINATION":"53.2160","SITE":"AFETR","NORAD_CAT_ID":"52098","OBJECT_TYPE":"PAYLOAD","RA_OF_ASC_NODE":"208.2824","MEAN_ELEMENT_THEORY":"SGP4","PERIAPSIS":"538.642","OBJECT_NAME":"STARLINK-3665"},{"INCLINATION":"53.2189","COUNTRY_CODE":"US","APOAPSIS":"540.783","SEMIMAJOR_AXIS":"6917.861","TLE_LINE1":"1 52100U 22029N   22300.44522888  .00003201  00000-0  21909-3 0  9991","RCS_SIZE":"LARGE","OBJECT_NAME":"STARLINK-3702","MEAN_ELEMENT_THEORY":"SGP4","PERIAPSIS":"538.669","RA_OF_ASC_NODE":"207.4214","SITE":"AFETR","NORAD_CAT_ID":"52100","OBJECT_TYPE":"PAYLOAD","MEAN_MOTION":"15.08846480","EPOCH":"2022-10-27T10:41:07.775232","MEAN_ANOMALY":"297.3114","CENTER_NAME":"EARTH","TIME_SYSTEM":"UTC","GP_ID":"216304997","DECAY_DATE":null,"LAUNCH_DATE":"2022-03-19","ARG_OF_PERICENTER":"62.8033","CLASSIFICATION_TYPE":"U","REV_AT_EPOCH":"3508","ELEMENT_SET_NO":"999","ECCENTRICITY":"0.00015280","REF_FRAME":"TEME","PERIOD":"95.437","EPHEMERIS_TYPE":"0","FILE":"3635758","BSTAR":"0.00021909000000","MEAN_MOTION_DOT":"0.00003201","MEAN_MOTION_DDOT":"0.0000000000000","TLE_LINE2":"2 52100  53.2189 207.4214 0001528  62.8033 297.3114 15.08846480 35083","OBJECT_ID":"2022-029N"},{"ARG_OF_PERICENTER":"61.7670","CLASSIFICATION_TYPE":"U","ELEMENT_SET_NO":"999","REV_AT_EPOCH":"3507","ECCENTRICITY":"0.00017200","REF_FRAME":"TEME","EPHEMERIS_TYPE":"0","PERIOD":"95.437","FILE":"3635758","BSTAR":"0.00027547000000","MEAN_MOTION_DOT":"0.00004099","MEAN_MOTION_DDOT":"0.0000000000000","TLE_LINE2":"2 52101  53.2176 207.4545 0001720  61.7670 298.3496 15.08845261 35075","OBJECT_ID":"2022-029P","MEAN_MOTION":"15.08845261","MEAN_ANOMALY":"298.3496","EPOCH":"2022-10-27T10:30:32.421600","CENTER_NAME":"EARTH","TIME_SYSTEM":"UTC","GP_ID":"216305247","DECAY_DATE":null,"LAUNCH_DATE":"2022-03-19","OBJECT_NAME":"STARLINK-3703","PERIAPSIS":"538.539","MEAN_ELEMENT_THEORY":"SGP4","RA_OF_ASC_NODE":"207.4545","NORAD_CAT_ID":"52101","SITE":"AFETR","OBJECT_TYPE":"PAYLOAD","INCLINATION":"53.2176","COUNTRY_CODE":"US","APOAPSIS":"540.919","SEMIMAJOR_AXIS":"6917.864","TLE_LINE1":"1 52101U 22029P   22300.43787525  .00004099  00000-0  27547-3 0  9992","RCS_SIZE":"LARGE"},{"PERIOD":"95.438","EPHEMERIS_TYPE":"0","ECCENTRICITY":"0.00018220","REF_FRAME":"TEME","CLASSIFICATION_TYPE":"U","ELEMENT_SET_NO":"999","REV_AT_EPOCH":"3521","ARG_OF_PERICENTER":"54.5570","TLE_LINE2":"2 52102  53.2187 197.4037 0001822  54.5570 305.5592 15.08833187 35212","OBJECT_ID":"2022-029Q","MEAN_MOTION_DDOT":"0.0000000000000","MEAN_MOTION_DOT":"0.00000364","BSTAR":"0.00004099600000","FILE":"3635758","CENTER_NAME":"EARTH","MEAN_ANOMALY":"305.5592","EPOCH":"2022-10-27T10:43:49.911744","MEAN_MOTION":"15.08833187","DECAY_DATE":null,"LAUNCH_DATE":"2022-03-19","TIME_SYSTEM":"UTC","GP_ID":"216305999","NORAD_CAT_ID":"52102","SITE":"AFETR","OBJECT_TYPE":"PAYLOAD","RA_OF_ASC_NODE":"197.4037","PERIAPSIS":"538.506","MEAN_ELEMENT_THEORY":"SGP4","OBJECT_NAME":"STARLINK-3709","APOAPSIS":"541.027","COUNTRY_CODE":"US","INCLINATION":"53.2187","RCS_SIZE":"LARGE","TLE_LINE1":"1 52102U 22029Q   22300.44710546  .00000364  00000-0  40996-4 0  9998","SEMIMAJOR_AXIS":"6917.901"}];
